KUIPER-00178            
1 67767U 26030D   26055.81188561  .00017853  00000+0  52909-3 0  9991
2 67767  51.8844 281.2574 0005550  12.8309 347.2817 15.34907725  3112
KUIPER-00180            
1 67768U 26030E   26055.76190913 -.00000734  00000+0 -11048-4 0  9992
2 67768  51.8820 281.6634 0014613  32.5040 327.6842 15.32614621  3106
KUIPER-00197            
1 67769U 26030F   26055.80496595  .00022263  00000+0  63913-3 0  9999
2 67769  51.8842 281.2129 0001734  58.0857 302.0297 15.35767650  3111
KUIPER-00198            
1 67770U 26030G   26055.80783749  .00017538  00000+0  51174-3 0  9996
2 67770  51.8820 281.2287 0002652  24.4052 335.7059 15.35417858  3119
KUIPER-00199            
1 67771U 26030H   26055.82042183  .00028056  00000+0  85208-3 0  9991
2 67771  51.8816 281.3085 0010165  23.4271 336.7175 15.33815784  3110
KUIPER-00200            
1 67772U 26030J   26055.80019934  .00018970  00000+0  53573-3 0  9992
2 67772  51.8817 281.1801 0002199 162.5768 197.5294 15.36388449  3111
KUIPER-00203            
1 67773U 26030K   26055.82263994  .00026661  00000+0  81713-3 0  9995
2 67773  51.8810 281.3203 0012173  25.3367 334.8213 15.33532733  3118
KUIPER-00205            
1 67774U 26030L   26055.80561112  .00027142  00000+0  77665-3 0  9993
2 67774  51.8818 281.2147 0001876 353.1253   6.9707 15.35754482  3111
KUIPER-00208            
1 67775U 26030M   26055.76141374 -.00012390  00000+0 -37277-3 0  9999
2 67775  51.8841 281.6661 0014488  23.7768 336.3884 15.32809449  3103
KUIPER-00209            
1 67776U 26030N   26055.76066755 -.00017707  00000+0 -54391-3 0  9992
2 67776  51.8843 281.6602 0012275  21.6407 338.5094 15.32510313  3106
KUIPER-00213            
1 67777U 26030P   26055.76064326 -.00001066  00000+0 -21403-4 0  9995
2 67777  51.8818 281.6554 0014296  26.5814 333.5901 15.32624052  3104
KUIPER-00214            
1 67778U 26030Q   26055.80155679  .00017983  00000+0  51200-3 0  9993
2 67778  51.8849 281.1911 0001716 152.9820 207.1256 15.36171925  3115
