CCSDS_OMM_VERS = 2.0
CREATION_DATE  = 
ORIGINATOR     = 

OBJECT_NAME    = KUIPER-00178
OBJECT_ID      = 2026-030D
CENTER_NAME    = EARTH
REF_FRAME      = TEME
TIME_SYSTEM    = UTC
MEAN_ELEMENT_THEORY = SGP/SGP4

EPOCH          = 2026-02-24T19:29:06.916704
MEAN_MOTION    = 15.34907725
ECCENTRICITY   = .000555
INCLINATION    = 51.8844
RA_OF_ASC_NODE = 281.2574
ARG_OF_PERICENTER = 12.8309
MEAN_ANOMALY   = 347.2817

EPHEMERIS_TYPE = 0
CLASSIFICATION_TYPE = U
NORAD_CAT_ID   = 67767
ELEMENT_SET_NO = 999
REV_AT_EPOCH   = 311
BSTAR          = .52909E-3
MEAN_MOTION_DOT = .17853E-3
MEAN_MOTION_DDOT = 0

CCSDS_OMM_VERS = 2.0
CREATION_DATE  = 
ORIGINATOR     = 

OBJECT_NAME    = KUIPER-00180
OBJECT_ID      = 2026-030E
CENTER_NAME    = EARTH
REF_FRAME      = TEME
TIME_SYSTEM    = UTC
MEAN_ELEMENT_THEORY = SGP/SGP4

EPOCH          = 2026-02-24T18:17:08.948832
MEAN_MOTION    = 15.32614621
ECCENTRICITY   = .0014613
INCLINATION    = 51.8820
RA_OF_ASC_NODE = 281.6634
ARG_OF_PERICENTER = 32.5040
MEAN_ANOMALY   = 327.6842

EPHEMERIS_TYPE = 0
CLASSIFICATION_TYPE = U
NORAD_CAT_ID   = 67768
ELEMENT_SET_NO = 999
REV_AT_EPOCH   = 310
BSTAR          = -.11048E-4
MEAN_MOTION_DOT = -.734E-5
MEAN_MOTION_DDOT = 0

CCSDS_OMM_VERS = 2.0
CREATION_DATE  = 
ORIGINATOR     = 

OBJECT_NAME    = KUIPER-00197
OBJECT_ID      = 2026-030F
CENTER_NAME    = EARTH
REF_FRAME      = TEME
TIME_SYSTEM    = UTC
MEAN_ELEMENT_THEORY = SGP/SGP4

EPOCH          = 2026-02-24T19:19:09.058080
MEAN_MOTION    = 15.35767650
ECCENTRICITY   = .0001734
INCLINATION    = 51.8842
RA_OF_ASC_NODE = 281.2129
ARG_OF_PERICENTER = 58.0857
MEAN_ANOMALY   = 302.0297

EPHEMERIS_TYPE = 0
CLASSIFICATION_TYPE = U
NORAD_CAT_ID   = 67769
ELEMENT_SET_NO = 999
REV_AT_EPOCH   = 311
BSTAR          = .63913E-3
MEAN_MOTION_DOT = .22263E-3
MEAN_MOTION_DDOT = 0

CCSDS_OMM_VERS = 2.0
CREATION_DATE  = 
ORIGINATOR     = 

OBJECT_NAME    = KUIPER-00198
OBJECT_ID      = 2026-030G
CENTER_NAME    = EARTH
REF_FRAME      = TEME
TIME_SYSTEM    = UTC
MEAN_ELEMENT_THEORY = SGP/SGP4

EPOCH          = 2026-02-24T19:23:17.159136
MEAN_MOTION    = 15.35417858
ECCENTRICITY   = .0002652
INCLINATION    = 51.8820
RA_OF_ASC_NODE = 281.2287
ARG_OF_PERICENTER = 24.4052
MEAN_ANOMALY   = 335.7059

EPHEMERIS_TYPE = 0
CLASSIFICATION_TYPE = U
NORAD_CAT_ID   = 67770
ELEMENT_SET_NO = 999
REV_AT_EPOCH   = 311
BSTAR          = .51174E-3
MEAN_MOTION_DOT = .17538E-3
MEAN_MOTION_DDOT = 0

CCSDS_OMM_VERS = 2.0
CREATION_DATE  = 
ORIGINATOR     = 

OBJECT_NAME    = KUIPER-00199
OBJECT_ID      = 2026-030H
CENTER_NAME    = EARTH
REF_FRAME      = TEME
TIME_SYSTEM    = UTC
MEAN_ELEMENT_THEORY = SGP/SGP4

EPOCH          = 2026-02-24T19:41:24.446112
MEAN_MOTION    = 15.33815784
ECCENTRICITY   = .0010165
INCLINATION    = 51.8816
RA_OF_ASC_NODE = 281.3085
ARG_OF_PERICENTER = 23.4271
MEAN_ANOMALY   = 336.7175

EPHEMERIS_TYPE = 0
CLASSIFICATION_TYPE = U
NORAD_CAT_ID   = 67771
ELEMENT_SET_NO = 999
REV_AT_EPOCH   = 311
BSTAR          = .85208E-3
MEAN_MOTION_DOT = .28056E-3
MEAN_MOTION_DDOT = 0

CCSDS_OMM_VERS = 2.0
CREATION_DATE  = 
ORIGINATOR     = 

OBJECT_NAME    = KUIPER-00200
OBJECT_ID      = 2026-030J
CENTER_NAME    = EARTH
REF_FRAME      = TEME
TIME_SYSTEM    = UTC
MEAN_ELEMENT_THEORY = SGP/SGP4

EPOCH          = 2026-02-24T19:12:17.222976
MEAN_MOTION    = 15.36388449
ECCENTRICITY   = .0002199
INCLINATION    = 51.8817
RA_OF_ASC_NODE = 281.1801
ARG_OF_PERICENTER = 162.5768
MEAN_ANOMALY   = 197.5294

EPHEMERIS_TYPE = 0
CLASSIFICATION_TYPE = U
NORAD_CAT_ID   = 67772
ELEMENT_SET_NO = 999
REV_AT_EPOCH   = 311
BSTAR          = .53573E-3
MEAN_MOTION_DOT = .1897E-3
MEAN_MOTION_DDOT = 0

CCSDS_OMM_VERS = 2.0
CREATION_DATE  = 
ORIGINATOR     = 

OBJECT_NAME    = KUIPER-00203
OBJECT_ID      = 2026-030K
CENTER_NAME    = EARTH
REF_FRAME      = TEME
TIME_SYSTEM    = UTC
MEAN_ELEMENT_THEORY = SGP/SGP4

EPOCH          = 2026-02-24T19:44:36.090816
MEAN_MOTION    = 15.33532733
ECCENTRICITY   = .0012173
INCLINATION    = 51.8810
RA_OF_ASC_NODE = 281.3203
ARG_OF_PERICENTER = 25.3367
MEAN_ANOMALY   = 334.8213

EPHEMERIS_TYPE = 0
CLASSIFICATION_TYPE = U
NORAD_CAT_ID   = 67773
ELEMENT_SET_NO = 999
REV_AT_EPOCH   = 311
BSTAR          = .81713E-3
MEAN_MOTION_DOT = .26661E-3
MEAN_MOTION_DDOT = 0

CCSDS_OMM_VERS = 2.0
CREATION_DATE  = 
ORIGINATOR     = 

OBJECT_NAME    = KUIPER-00205
OBJECT_ID      = 2026-030L
CENTER_NAME    = EARTH
REF_FRAME      = TEME
TIME_SYSTEM    = UTC
MEAN_ELEMENT_THEORY = SGP/SGP4

EPOCH          = 2026-02-24T19:20:04.800768
MEAN_MOTION    = 15.35754482
ECCENTRICITY   = .0001876
INCLINATION    = 51.8818
RA_OF_ASC_NODE = 281.2147
ARG_OF_PERICENTER = 353.1253
MEAN_ANOMALY   = 6.9707

EPHEMERIS_TYPE = 0
CLASSIFICATION_TYPE = U
NORAD_CAT_ID   = 67774
ELEMENT_SET_NO = 999
REV_AT_EPOCH   = 311
BSTAR          = .77665E-3
MEAN_MOTION_DOT = .27142E-3
MEAN_MOTION_DDOT = 0

CCSDS_OMM_VERS = 2.0
CREATION_DATE  = 
ORIGINATOR     = 

OBJECT_NAME    = KUIPER-00208
OBJECT_ID      = 2026-030M
CENTER_NAME    = EARTH
REF_FRAME      = TEME
TIME_SYSTEM    = UTC
MEAN_ELEMENT_THEORY = SGP/SGP4

EPOCH          = 2026-02-24T18:16:26.147136
MEAN_MOTION    = 15.32809449
ECCENTRICITY   = .0014488
INCLINATION    = 51.8841
RA_OF_ASC_NODE = 281.6661
ARG_OF_PERICENTER = 23.7768
MEAN_ANOMALY   = 336.3884

EPHEMERIS_TYPE = 0
CLASSIFICATION_TYPE = U
NORAD_CAT_ID   = 67775
ELEMENT_SET_NO = 999
REV_AT_EPOCH   = 310
BSTAR          = -.37277E-3
MEAN_MOTION_DOT = -.1239E-3
MEAN_MOTION_DDOT = 0

CCSDS_OMM_VERS = 2.0
CREATION_DATE  = 
ORIGINATOR     = 

OBJECT_NAME    = KUIPER-00209
OBJECT_ID      = 2026-030N
CENTER_NAME    = EARTH
REF_FRAME      = TEME
TIME_SYSTEM    = UTC
MEAN_ELEMENT_THEORY = SGP/SGP4

EPOCH          = 2026-02-24T18:15:21.676320
MEAN_MOTION    = 15.32510313
ECCENTRICITY   = .0012275
INCLINATION    = 51.8843
RA_OF_ASC_NODE = 281.6602
ARG_OF_PERICENTER = 21.6407
MEAN_ANOMALY   = 338.5094

EPHEMERIS_TYPE = 0
CLASSIFICATION_TYPE = U
NORAD_CAT_ID   = 67776
ELEMENT_SET_NO = 999
REV_AT_EPOCH   = 310
BSTAR          = -.54391E-3
MEAN_MOTION_DOT = -.17707E-3
MEAN_MOTION_DDOT = 0

CCSDS_OMM_VERS = 2.0
CREATION_DATE  = 
ORIGINATOR     = 

OBJECT_NAME    = KUIPER-00213
OBJECT_ID      = 2026-030P
CENTER_NAME    = EARTH
REF_FRAME      = TEME
TIME_SYSTEM    = UTC
MEAN_ELEMENT_THEORY = SGP/SGP4

EPOCH          = 2026-02-24T18:15:19.577664
MEAN_MOTION    = 15.32624052
ECCENTRICITY   = .0014296
INCLINATION    = 51.8818
RA_OF_ASC_NODE = 281.6554
ARG_OF_PERICENTER = 26.5814
MEAN_ANOMALY   = 333.5901

EPHEMERIS_TYPE = 0
CLASSIFICATION_TYPE = U
NORAD_CAT_ID   = 67777
ELEMENT_SET_NO = 999
REV_AT_EPOCH   = 310
BSTAR          = -.21403E-4
MEAN_MOTION_DOT = -.1066E-4
MEAN_MOTION_DDOT = 0

CCSDS_OMM_VERS = 2.0
CREATION_DATE  = 
ORIGINATOR     = 

OBJECT_NAME    = KUIPER-00214
OBJECT_ID      = 2026-030Q
CENTER_NAME    = EARTH
REF_FRAME      = TEME
TIME_SYSTEM    = UTC
MEAN_ELEMENT_THEORY = SGP/SGP4

EPOCH          = 2026-02-24T19:14:14.506656
MEAN_MOTION    = 15.36171925
ECCENTRICITY   = .0001716
INCLINATION    = 51.8849
RA_OF_ASC_NODE = 281.1911
ARG_OF_PERICENTER = 152.9820
MEAN_ANOMALY   = 207.1256

EPHEMERIS_TYPE = 0
CLASSIFICATION_TYPE = U
NORAD_CAT_ID   = 67778
ELEMENT_SET_NO = 999
REV_AT_EPOCH   = 311
BSTAR          = .512E-3
MEAN_MOTION_DOT = .17983E-3
MEAN_MOTION_DDOT = 0

